STARLINK-1319_new
1 15379C 20019V   21326.15800927 -.00012814  00000-0 -85843-3 0  3269
2 15379  53.0534   8.0396 0001460  62.1474 212.5244 15.06418053    15
STARLINK-1319_old
1 25379C 20019V   21325.12689869  .00001380  00000-0  92482-4 0  3256
2 25379  53.0538  12.6687 0001416  64.0359  15.7926 15.06398226    16
